[{"CCSDS_OMM_VERS":"2.0","COMMENT":"GENERATED VIA SPACE-TRACK.ORG API","CREATION_DATE":"2017-10-17T15:32:55","ORIGINATOR":"18 SPCS","OBJECT_NAME":"UPSAT","OBJECT_ID":"1998-067LX","CENTER_NAME":"EARTH","REF_FRAME":"TEME","TIME_SYSTEM":"UTC","MEAN_ELEMENT_THEORY":"SGP4","EPOCH":"2017-10-17T11:48:04.717728","MEAN_MOTION":"15.60634968","ECCENTRICITY":"0.00039470","INCLINATION":"51.6378","RA_OF_ASC_NODE":"145.1914","ARG_OF_PERICENTER":"84.6583","MEAN_ANOMALY":"275.4860","EPHEMERIS_TYPE":"0","CLASSIFICATION_TYPE":"U","NORAD_CAT_ID":"42716","ELEMENT_SET_NO":"999","REV_AT_EPOCH":"2370","BSTAR":"0.00023888000000","MEAN_MOTION_DOT":"0.00019707","MEAN_MOTION_DDOT":"0.0000000000000","SEMIMAJOR_AXIS":"6763.958","PERIOD":"92.270","APOAPSIS":"388.493","PERIAPSIS":"383.154","OBJECT_TYPE":"PAYLOAD","RCS_SIZE":"SMALL","COUNTRY_CODE":"GREC","LAUNCH_DATE":"1998-11-20","SITE":"TTMTR","DECAY_DATE":null,"FILE":"2193570","GP_ID":"114883487","TLE_LINE0":"0 UPSAT","TLE_LINE1":"1 42716U 98067LX  17290.49172127  .00019707  00000-0  23888-3 0  9998","TLE_LINE2":"2 42716  51.6378 145.1914 0003947  84.6583 275.4860 15.60634968 23706"},{"CCSDS_OMM_VERS":"2.0","COMMENT":"GENERATED VIA SPACE-TRACK.ORG API","CREATION_DATE":"2017-10-17T21:44:59","ORIGINATOR":"18 SPCS","OBJECT_NAME":"UPSAT","OBJECT_ID":"1998-067LX","CENTER_NAME":"EARTH","REF_FRAME":"TEME","TIME_SYSTEM":"UTC","MEAN_ELEMENT_THEORY":"SGP4","EPOCH":"2017-10-17T14:52:29.744544","MEAN_MOTION":"15.60640493","ECCENTRICITY":"0.00039520","INCLINATION":"51.6378","RA_OF_ASC_NODE":"144.5467","ARG_OF_PERICENTER":"85.1238","MEAN_ANOMALY":"275.0206","EPHEMERIS_TYPE":"0","CLASSIFICATION_TYPE":"U","NORAD_CAT_ID":"42716","ELEMENT_SET_NO":"999","REV_AT_EPOCH":"2372","BSTAR":"0.00024459000000","MEAN_MOTION_DOT":"0.00020196","MEAN_MOTION_DDOT":"0.0000000000000","SEMIMAJOR_AXIS":"6763.942","PERIOD":"92.269","APOAPSIS":"388.480","PERIAPSIS":"383.134","OBJECT_TYPE":"PAYLOAD","RCS_SIZE":"SMALL","COUNTRY_CODE":"GREC","LAUNCH_DATE":"1998-11-20","SITE":"TTMTR","DECAY_DATE":null,"FILE":"2193648","GP_ID":"114893751","TLE_LINE0":"0 UPSAT","TLE_LINE1":"1 42716U 98067LX  17290.61978871 +.00020196 +00000-0 +24459-3 0  9991","TLE_LINE2":"2 42716 051.6378 144.5467 0003952 085.1238 275.0206 15.60640493023723"},{"CCSDS_OMM_VERS":"2.0","COMMENT":"GENERATED VIA SPACE-TRACK.ORG API","CREATION_DATE":"2017-10-17T22:59:10","ORIGINATOR":"18 SPCS","OBJECT_NAME":"UPSAT","OBJECT_ID":"1998-067LX","CENTER_NAME":"EARTH","REF_FRAME":"TEME","TIME_SYSTEM":"UTC","MEAN_ELEMENT_THEORY":"SGP4","EPOCH":"2017-10-17T16:24:42.250176","MEAN_MOTION":"15.60642671","ECCENTRICITY":"0.00039520","INCLINATION":"51.6377","RA_OF_ASC_NODE":"144.2245","ARG_OF_PERICENTER":"85.1974","MEAN_ANOMALY":"274.9470","EPHEMERIS_TYPE":"0","CLASSIFICATION_TYPE":"U","NORAD_CAT_ID":"42716","ELEMENT_SET_NO":"999","REV_AT_EPOCH":"2373","BSTAR":"0.00024757000000","MEAN_MOTION_DOT":"0.00020451","MEAN_MOTION_DDOT":"0.0000000000000","SEMIMAJOR_AXIS":"6763.936","PERIOD":"92.269","APOAPSIS":"388.474","PERIAPSIS":"383.128","OBJECT_TYPE":"PAYLOAD","RCS_SIZE":"SMALL","COUNTRY_CODE":"GREC","LAUNCH_DATE":"1998-11-20","SITE":"TTMTR","DECAY_DATE":null,"FILE":"2193721","GP_ID":"114895592","TLE_LINE0":"0 UPSAT","TLE_LINE1":"1 42716U 98067LX  17290.68382234  .00020451  00000-0  24757-3 0  9995","TLE_LINE2":"2 42716  51.6377 144.2245 0003952  85.1974 274.9470 15.60642671 23732"},{"CCSDS_OMM_VERS":"2.0","COMMENT":"GENERATED VIA SPACE-TRACK.ORG API","CREATION_DATE":"2017-10-18T07:19:49","ORIGINATOR":"18 SPCS","OBJECT_NAME":"UPSAT","OBJECT_ID":"1998-067LX","CENTER_NAME":"EARTH","REF_FRAME":"TEME","TIME_SYSTEM":"UTC","MEAN_ELEMENT_THEORY":"SGP4","EPOCH":"2017-10-18T04:42:21.806208","MEAN_MOTION":"15.60664099","ECCENTRICITY":"0.00039200","INCLINATION":"51.6375","RA_OF_ASC_NODE":"141.6457","ARG_OF_PERICENTER":"86.2414","MEAN_ANOMALY":"273.9028","EPHEMERIS_TYPE":"0","CLASSIFICATION_TYPE":"U","NORAD_CAT_ID":"42716","ELEMENT_SET_NO":"999","REV_AT_EPOCH":"2381","BSTAR":"0.00022621000000","MEAN_MOTION_DOT":"0.00018653","MEAN_MOTION_DDOT":"0.0000000000000","SEMIMAJOR_AXIS":"6763.874","PERIOD":"92.268","APOAPSIS":"388.391","PERIAPSIS":"383.088","OBJECT_TYPE":"PAYLOAD","RCS_SIZE":"SMALL","COUNTRY_CODE":"GREC","LAUNCH_DATE":"1998-11-20","SITE":"TTMTR","DECAY_DATE":null,"FILE":"2193893","GP_ID":"114898963","TLE_LINE0":"0 UPSAT","TLE_LINE1":"1 42716U 98067LX  17291.19608572  .00018653  00000-0  22621-3 0  9997","TLE_LINE2":"2 42716  51.6375 141.6457 0003920  86.2414 273.9028 15.60664099 23817"},{"CCSDS_OMM_VERS":"2.0","COMMENT":"GENERATED VIA SPACE-TRACK.ORG API","CREATION_DATE":"2017-10-18T15:11:41","ORIGINATOR":"18 SPCS","OBJECT_NAME":"UPSAT","OBJECT_ID":"1998-067LX","CENTER_NAME":"EARTH","REF_FRAME":"TEME","TIME_SYSTEM":"UTC","MEAN_ELEMENT_THEORY":"SGP4","EPOCH":"2017-10-18T12:23:23.759808","MEAN_MOTION":"15.60677983","ECCENTRICITY":"0.00039140","INCLINATION":"51.6374","RA_OF_ASC_NODE":"140.0336","ARG_OF_PERICENTER":"87.7042","MEAN_ANOMALY":"272.4400","EPHEMERIS_TYPE":"0","CLASSIFICATION_TYPE":"U","NORAD_CAT_ID":"42716","ELEMENT_SET_NO":"999","REV_AT_EPOCH":"2386","BSTAR":"0.00024259000000","MEAN_MOTION_DOT":"0.00020056","MEAN_MOTION_DDOT":"0.0000000000000","SEMIMAJOR_AXIS":"6763.834","PERIOD":"92.267","APOAPSIS":"388.346","PERIAPSIS":"383.052","OBJECT_TYPE":"PAYLOAD","RCS_SIZE":"SMALL","COUNTRY_CODE":"GREC","LAUNCH_DATE":"1998-11-20","SITE":"TTMTR","DECAY_DATE":null,"FILE":"2194043","GP_ID":"114908097","TLE_LINE0":"0 UPSAT","TLE_LINE1":"1 42716U 98067LX  17291.51624722  .00020056  00000-0  24259-3 0  9997","TLE_LINE2":"2 42716  51.6374 140.0336 0003914  87.7042 272.4400 15.60677983 23860"},{"CCSDS_OMM_VERS":"2.0","COMMENT":"GENERATED VIA SPACE-TRACK.ORG API","CREATION_DATE":"2017-10-18T21:54:40","ORIGINATOR":"18 SPCS","OBJECT_NAME":"UPSAT","OBJECT_ID":"1998-067LX","CENTER_NAME":"EARTH","REF_FRAME":"TEME","TIME_SYSTEM":"UTC","MEAN_ELEMENT_THEORY":"SGP4","EPOCH":"2017-10-18T13:55:36.120288","MEAN_MOTION":"15.60680767","ECCENTRICITY":"0.00039180","INCLINATION":"51.6374","RA_OF_ASC_NODE":"139.7111","ARG_OF_PERICENTER":"88.0186","MEAN_ANOMALY":"272.1257","EPHEMERIS_TYPE":"0","CLASSIFICATION_TYPE":"U","NORAD_CAT_ID":"42716","ELEMENT_SET_NO":"999","REV_AT_EPOCH":"2387","BSTAR":"0.00024221000000","MEAN_MOTION_DOT":"0.00020026","MEAN_MOTION_DDOT":"0.0000000000000","SEMIMAJOR_AXIS":"6763.826","PERIOD":"92.267","APOAPSIS":"388.341","PERIAPSIS":"383.041","OBJECT_TYPE":"PAYLOAD","RCS_SIZE":"SMALL","COUNTRY_CODE":"GREC","LAUNCH_DATE":"1998-11-20","SITE":"TTMTR","DECAY_DATE":null,"FILE":"2194133","GP_ID":"114917961","TLE_LINE0":"0 UPSAT","TLE_LINE1":"1 42716U 98067LX  17291.58027917 +.00020026 +00000-0 +24221-3 0  9993","TLE_LINE2":"2 42716 051.6374 139.7111 0003918 088.0186 272.1257 15.60680767023875"},{"CCSDS_OMM_VERS":"2.0","COMMENT":"GENERATED VIA SPACE-TRACK.ORG API","CREATION_DATE":"2017-10-18T23:01:39","ORIGINATOR":"18 SPCS","OBJECT_NAME":"UPSAT","OBJECT_ID":"1998-067LX","CENTER_NAME":"EARTH","REF_FRAME":"TEME","TIME_SYSTEM":"UTC","MEAN_ELEMENT_THEORY":"SGP4","EPOCH":"2017-10-18T20:04:25.466304","MEAN_MOTION":"15.60691911","ECCENTRICITY":"0.00039130","INCLINATION":"51.6373","RA_OF_ASC_NODE":"138.4220","ARG_OF_PERICENTER":"88.0978","MEAN_ANOMALY":"272.0464","EPHEMERIS_TYPE":"0","CLASSIFICATION_TYPE":"U","NORAD_CAT_ID":"42716","ELEMENT_SET_NO":"999","REV_AT_EPOCH":"2391","BSTAR":"0.00026047000000","MEAN_MOTION_DOT":"0.00021589","MEAN_MOTION_DDOT":"0.0000000000000","SEMIMAJOR_AXIS":"6763.794","PERIOD":"92.266","APOAPSIS":"388.305","PERIAPSIS":"383.012","OBJECT_TYPE":"PAYLOAD","RCS_SIZE":"SMALL","COUNTRY_CODE":"GREC","LAUNCH_DATE":"1998-11-20","SITE":"TTMTR","DECAY_DATE":null,"FILE":"2194201","GP_ID":"114919724","TLE_LINE0":"0 UPSAT","TLE_LINE1":"1 42716U 98067LX  17291.83640586  .00021589  00000-0  26047-3 0  9997","TLE_LINE2":"2 42716  51.6373 138.4220 0003913  88.0978 272.0464 15.60691911 23912"},{"CCSDS_OMM_VERS":"2.0","COMMENT":"GENERATED VIA SPACE-TRACK.ORG API","CREATION_DATE":"2017-10-19T07:12:44","ORIGINATOR":"18 SPCS","OBJECT_NAME":"UPSAT","OBJECT_ID":"1998-067LX","CENTER_NAME":"EARTH","REF_FRAME":"TEME","TIME_SYSTEM":"UTC","MEAN_ELEMENT_THEORY":"SGP4","EPOCH":"2017-10-19T03:45:26.885088","MEAN_MOTION":"15.60707463","ECCENTRICITY":"0.00038780","INCLINATION":"51.6372","RA_OF_ASC_NODE":"136.8100","ARG_OF_PERICENTER":"88.9412","MEAN_ANOMALY":"271.2026","EPHEMERIS_TYPE":"0","CLASSIFICATION_TYPE":"U","NORAD_CAT_ID":"42716","ELEMENT_SET_NO":"999","REV_AT_EPOCH":"2396","BSTAR":"0.00026936000000","MEAN_MOTION_DOT":"0.00022359","MEAN_MOTION_DDOT":"0.0000000000000","SEMIMAJOR_AXIS":"6763.749","PERIOD":"92.265","APOAPSIS":"388.237","PERIAPSIS":"382.991","OBJECT_TYPE":"PAYLOAD","RCS_SIZE":"SMALL","COUNTRY_CODE":"GREC","LAUNCH_DATE":"1998-11-20","SITE":"TTMTR","DECAY_DATE":null,"FILE":"2194363","GP_ID":"114922705","TLE_LINE0":"0 UPSAT","TLE_LINE1":"1 42716U 98067LX  17292.15656117  .00022359  00000-0  26936-3 0  9993","TLE_LINE2":"2 42716  51.6372 136.8100 0003878  88.9412 271.2026 15.60707463 23962"}]